STARLINK-31870          
1 59787U 24093F   26068.45271618  .00003967  00000+0  15361-3 0  9993
2 59787  43.0031 209.8538 0002303 284.0443  76.0153 15.27576119102668
HERMES-4                
1 63833U 25052BP  26068.92081747  .00021364  00000+0  81237-3 0  9996
2 63833  97.4000 323.4610 0002652 154.9526 205.1842 15.26796135 54782
